NORAD_CAT_ID,OBJECT_NAME,OBJECT_TYPE,EPOCH,MEAN_MOTION,ECCENTRICITY,INCLINATION,RA_OF_ASC_NODE,ARG_OF_PERICENTER,MEAN_ANOMALY,BSTAR,MEAN_MOTION_DOT,MEAN_MOTION_DDOT,TLE_LINE0,TLE_LINE1,TLE_LINE2,SEMIMAJOR_AXIS,PERIOD,APOGEE,PERIGEE,DECAYED
53530.0,STARLINK-4482,PAYLOAD,2023-05-19 16:48:58,15.08838096,0.0001195,53.2174,355.4768,87.4761,272.6368,3.031e-05,1.95e-06,0.0,0 STARLINK-4482,1 53530U 22101D   23139.70067792  .00000195  00000-0  30310-4 0  9994,2 53530  53.2174 355.4768 0001195  87.4761 272.6368 15.08838096 41420,6917.886,95.438,540.578,538.925,0.0
53530.0,STARLINK-4482,PAYLOAD,2023-05-19 21:35:07,15.0884477,0.0001119,53.2171,354.5854,88.4879,271.6241,7.6943e-05,9.37e-06,0.0,0 STARLINK-4482,1 53530U 22101D   23139.89939215  .00000937  00000-0  76943-4 0  9998,2 53530  53.2171 354.5854 0001119  88.4879 271.6241 15.08844770 41458,6917.866,95.437,540.505,538.957,0.0
53530.0,STARLINK-4482,PAYLOAD,2023-05-20 16:39:45,15.08842355,9.63e-05,53.2171,351.0189,86.1322,273.978,7.7468e-05,9.45e-06,0.0,0 STARLINK-4482,1 53530U 22101D   23140.69427398  .00000945  00000-0  77468-4 0  9994,2 53530  53.2171 351.0189 0000963  86.1322 273.9780 15.08842355 41578,6917.873,95.437,540.404,539.072,0.0
53530.0,STARLINK-4482,PAYLOAD,2023-05-20 19:50:31,15.08846774,9.66e-05,53.2167,350.4246,87.0883,273.022,0.00011194,1.495e-05,0.0,0 STARLINK-4482,1 53530U 22101D   23140.82674995  .00001495  00000-0  11194-3 0  9990,2 53530  53.2167 350.4246 0000966  87.0883 273.0220 15.08846774 41596,6917.86,95.437,540.393,539.056,0.0
53530.0,STARLINK-4482,PAYLOAD,2023-05-20 23:01:16,15.08854179,0.0001009,53.2165,349.8297,102.3824,257.7281,0.00016645,2.363e-05,0.0,0 STARLINK-4482,1 53530U 22101D   23140.95922256  .00002363  00000-0  16645-3 0  9991,2 53530  53.2165 349.8297 0001009 102.3824 257.7281 15.08854179 41614,6917.837,95.437,540.4,539.004,0.0
53530.0,STARLINK-4482,PAYLOAD,2023-05-21 19:41:19,15.0882935,0.0001032,53.2162,345.9644,78.3796,281.7312,-5.4117e-05,-1.149e-05,0.0,0 STARLINK-4482,1 53530U 22101D   23141.82036953 -.00001149  00000-0 -54117-4 0  9998,2 53530  53.2162 345.9644 0001032  78.3796 281.7312 15.08829350 41749,6917.913,95.438,540.492,539.064,0.0
53530.0,STARLINK-4482,PAYLOAD,2023-05-22 13:10:34,15.08838244,0.0001034,53.2176,342.6895,90.425,269.6861,-8.3999e-05,-1.624e-05,0.0,0 STARLINK-4482,1 53530U 22101D   23142.54900972 -.00001624  00000-0 -83999-4 0  9997,2 53530  53.2176 342.6895 0001034  90.4250 269.6861 15.08838244 41856,6917.886,95.438,540.466,539.035,0.0
53530.0,STARLINK-4482,PAYLOAD,2023-05-22 19:32:06,15.08844255,0.0001,53.2169,341.5016,86.8332,273.2774,-1.1809e-05,-4.76e-06,0.0,0 STARLINK-4482,1 53530U 22101D   23142.81396397 -.00000476  00000-0 -11809-4 0  9992,2 53530  53.2169 341.5016 0001000  86.8332 273.2774 15.08844255 41891,6917.867,95.437,540.424,539.041,0.0
53530.0,STARLINK-4482,PAYLOAD,2023-05-23 11:25:58,15.08837794,9.94e-05,53.2158,338.5277,77.5344,282.576,0.00028464,4.245e-05,0.0,0 STARLINK-4482,1 53530U 22101D   23143.47636984  .00004245  00000-0  28464-3 0  9994,2 53530  53.2158 338.5277 0000994  77.5344 282.5760 15.08837794 41994,6917.887,95.438,540.44,539.064,0.0
53530.0,STARLINK-4482,PAYLOAD,2023-05-23 19:22:53,15.08857054,9.7e-05,53.2159,337.0404,76.0477,284.0623,0.0006938,0.00010776,0.0,0 STARLINK-4482,1 53530U 22101D   23143.80756615  .00010776  00000-0  69380-3 0  9993,2 53530  53.2159 337.0404 0000970  76.0477 284.0623 15.08857054 42049,6917.828,95.436,540.364,539.022,0.0
53530.0,STARLINK-4482,PAYLOAD,2023-05-23 20:58:16,15.08858747,9.58e-05,53.2159,336.743,73.9933,286.1165,0.00070967,0.0001103,0.0,0 STARLINK-4482,1 53530U 22101D   23143.87380531  .00011030  00000-0  70967-3 0  9997,2 53530  53.2159 336.7430 0000958  73.9933 286.1165 15.08858747 42058,6917.823,95.436,540.351,539.025,0.0
53530.0,STARLINK-4482,PAYLOAD,2023-05-24 03:19:49,15.08856802,0.00014,53.2159,335.5557,44.0335,316.0768,0.00048398,7.426e-05,0.0,0 STARLINK-4482,1 53530U 22101D   23144.13876477  .00007426  00000-0  48398-3 0  9993,2 53530  53.2159 335.5557 0001400  44.0335 316.0768 15.08856802 42099,6917.829,95.436,540.663,538.726,0.0
53530.0,STARLINK-4482,PAYLOAD,2023-05-24 14:27:31,15.0884921,9.53e-05,53.2161,333.4721,81.989,278.121,0.00018025,2.583e-05,0.0,0 STARLINK-4482,1 53530U 22101D   23144.60244276  .00002583  00000-0  18025-3 0  9994,2 53530  53.2161 333.4721 0000953  81.9890 278.1210 15.08849210 42163,6917.852,95.437,540.377,539.058,0.0
53530.0,STARLINK-4482,PAYLOAD,2023-05-25 17:29:04,15.08848644,0.0001101,53.2165,328.417,62.2507,297.8597,0.00042835,6.537e-05,0.0,0 STARLINK-4482,1 53530U 22101D   23145.72852176  .00006537  00000-0  42835-3 0  9991,2 53530  53.2165 328.4170 0001101  62.2507 297.8597 15.08848644 42337,6917.854,95.437,540.481,538.957,0.0
53530.0,STARLINK-4482,PAYLOAD,2023-05-26 12:33:42,15.08838859,0.0001005,53.2164,324.8525,87.7773,272.3335,7.4735e-05,9.02e-06,0.0,0 STARLINK-4482,1 53530U 22101D   23146.52340318  .00000902  00000-0  74735-4 0  9995,2 53530  53.2164 324.8525 0001005  87.7773 272.3335 15.08838859 42458,6917.884,95.438,540.444,539.054,0.0
53530.0,STARLINK-4482,PAYLOAD,2023-05-26 17:19:51,15.08838269,9.84e-05,53.2162,323.9558,98.1088,262.0016,2.7601e-05,1.52e-06,0.0,0 STARLINK-4482,1 53530U 22101D   23146.72212388  .00000152  00000-0  27601-4 0  9999,2 53530  53.2162 323.9558 0000984  98.1088 262.0016 15.08838269 42482,6917.886,95.438,540.431,539.07,0.0
53530.0,STARLINK-4482,PAYLOAD,2023-05-27 20:21:25,15.08838226,9.27e-05,53.2162,318.9026,96.8705,263.2393,0.00010428,1.372e-05,0.0,0 STARLINK-4482,1 53530U 22101D   23147.84820741  .00001372  00000-0  10428-3 0  9994,2 53530  53.2162 318.9026 0000927  96.8705 263.2393 15.08838226 42657,6917.886,95.438,540.392,539.11,0.0
53530.0,STARLINK-4482,PAYLOAD,2023-05-28 04:18:21,15.08836489,9.03e-05,53.2164,317.4156,92.6588,267.4507,0.00010781,1.428e-05,0.0,0 STARLINK-4482,1 53530U 22101D   23148.17940978  .00001428  00000-0  10781-3 0  9990,2 53530  53.2164 317.4156 0000903  92.6588 267.4507 15.08836489 42702,6917.891,95.438,540.381,539.131,0.0
53530.0,STARLINK-4482,PAYLOAD,2023-05-28 20:12:11,15.08846246,9.01e-05,53.2163,314.4417,89.9447,270.1648,0.00017886,2.56e-05,0.0,0 STARLINK-4482,1 53530U 22101D   23148.84180387  .00002560  00000-0  17886-3 0  9995,2 53530  53.2163 314.4417 0000901  89.9447 270.1648 15.08846246 42809,6917.861,95.437,540.35,539.103,0.0
53530.0,STARLINK-4482,PAYLOAD,2023-05-29 04:09:07,15.08840219,0.0001031,53.2159,312.954,73.0473,287.0632,8.9112e-05,1.131e-05,0.0,0 STARLINK-4482,1 53530U 22101D   23149.17300769  .00001131  00000-0  89112-4 0  9995,2 53530  53.2159 312.9540 0001031  73.0473 287.0632 15.08840219 42851,6917.88,95.438,540.458,539.031,0.0
53530.0,STARLINK-4482,PAYLOAD,2023-05-29 13:41:26,15.08836433,0.0001038,53.2158,311.1694,73.0627,287.0479,7.6295e-05,9.27e-06,0.0,0 STARLINK-4482,1 53530U 22101D   23149.57045059  .00000927  00000-0  76295-4 0  9997,2 53530  53.2158 311.1694 0001038  73.0627 287.0479 15.08836433 42918,6917.891,95.438,540.474,539.038,0.0
53530.0,STARLINK-4482,PAYLOAD,2023-05-29 20:02:59,15.08844243,9.75e-05,53.2166,309.9803,72.0687,288.0412,9.8897e-05,1.287e-05,0.0,0 STARLINK-4482,1 53530U 22101D   23149.83540745  .00001287  00000-0  98897-4 0  9990,2 53530  53.2166 309.9803 0000975  72.0687 288.0412 15.08844243 42958,6917.867,95.437,540.407,539.058,0.0
53530.0,STARLINK-4482,PAYLOAD,2023-05-30 13:32:13,15.08843067,0.0001086,53.2166,306.7088,72.074,288.037,7.3337e-05,8.8e-06,0.0,0 STARLINK-4482,1 53530U 22101D   23150.56404849  .00000880  00000-0  73337-4 0  9996,2 53530  53.2166 306.7088 0001086  72.0740 288.0370 15.08843067 43061,6917.871,95.437,540.487,538.985,0.0
53530.0,STARLINK-4482,PAYLOAD,2023-05-30 15:07:35,15.08894446,0.0001423,53.2165,306.4119,61.5207,298.5928,-0.00070501,-0.00011507,0.0,0 STARLINK-4482,1 53530U 22101D   23150.63026643 -.00011507  00000-0 -70501-3 0  9995,2 53530  53.2165 306.4119 0001423  61.5207 298.5928 15.08894446 43071,6917.714,95.434,540.563,538.595,0.0
53530.0,STARLINK-4482,PAYLOAD,2023-05-30 16:42:59,15.08847434,0.0001045,53.2165,306.1149,69.0928,291.0176,6.698e-05,7.79e-06,0.0,0 STARLINK-4482,1 53530U 22101D   23150.69652516  .00000779  00000-0  66980-4 0  9999,2 53530  53.2165 306.1149 0001045  69.0928 291.0176 15.08847434 43083,6917.858,95.437,540.446,539.0,0.0
53530.0,STARLINK-4482,PAYLOAD,2023-05-31 10:12:14,15.08839296,0.0001169,53.2146,302.8483,57.0375,303.073,9.6175e-05,1.243e-05,0.0,0 STARLINK-4482,1 53530U 22101D   23151.42516904  .00001243  00000-0  96175-4 0  9997,2 53530  53.2146 302.8483 0001169  57.0375 303.0730 15.08839296 43195,6917.883,95.438,540.556,538.939,0.0
53530.0,STARLINK-4482,PAYLOAD,2023-05-31 13:23:01,15.08836797,0.0001119,53.2156,302.251,65.2995,294.8113,5.9547e-05,6.6e-06,0.0,0 STARLINK-4482,1 53530U 22101D   23151.55765111  .00000660  00000-0  59547-4 0  9991,2 53530  53.2156 302.2510 0001119  65.2995 294.8113 15.08836797 43213,6917.89,95.438,540.529,538.981,0.0
53530.0,STARLINK-4482,PAYLOAD,2023-05-31 16:33:46,15.0884049,9.63e-05,53.2159,301.6558,72.0813,288.0284,8.6635e-05,1.091e-05,0.0,0 STARLINK-4482,1 53530U 22101D   23151.69012718  .00001091  00000-0  86635-4 0  9991,2 53530  53.2159 301.6558 0000963  72.0813 288.0284 15.08840490 43233,6917.879,95.438,540.41,539.078,0.0
53530.0,STARLINK-4482,PAYLOAD,2023-06-02 09:53:49,15.08828866,0.0001084,53.216,293.9232,90.4679,269.6437,-1.6076e-05,-5.44e-06,0.0,0 STARLINK-4482,1 53530U 22101D   23153.41237661 -.00000544  00000-0 -16076-4 0  9995,2 53530  53.2160 293.9232 0001084  90.4679 269.6437 15.08828866 43492,6917.914,95.438,540.529,539.03,0.0
53530.0,STARLINK-4482,PAYLOAD,2023-06-02 13:04:35,15.08833198,0.0001098,53.216,293.3286,90.048,270.0638,2.4588e-05,1.03e-06,0.0,0 STARLINK-4482,1 53530U 22101D   23153.54485402  .00000103  00000-0  24588-4 0  9993,2 53530  53.2160 293.3286 0001098  90.0480 270.0638 15.08833198 43512,6917.901,95.438,540.526,539.007,0.0
